GLOBALSTAR M094         
1 39074U 13005C   26063.53396184 -.00000075  00000+0  16110-3 0  9992
2 39074  51.9951 109.4383 0000720 117.5923 242.5017 12.62267068605259
GLOBALSTAR M096         
1 39075U 13005D   26063.46792345 -.00000086  00000+0  98362-4 0  9996
2 39075  52.0068 158.3566 0000866 110.1813 249.9147 12.62263341604169
GLOBALSTAR M078         
1 39076U 13005E   26063.44132301 -.00000103  00000+0  37196-5 0  9994
2 39076  51.9852 242.5926 0001495  63.6753 296.4267 12.62275961602786
GLOBALSTAR M095         
1 39077U 13005F   26063.46793845 -.00000113  00000+0 -51601-4 0  9991
2 39077  52.0060 239.9679 0001361  86.7177 273.3845 12.62276105602645
GLOBALSTAR M087         
1 52888U 22064A   26063.32291352 -.00000103  00000+0  62973-5 0  9995
2 52888  52.0019  21.7065 0000678  84.5031 275.5913 12.62266798177896
