[{"OBJECT_NAME":"GLOBALSTAR M094","OBJECT_ID":"2013-005C","EPOCH":"2026-03-04T12:48:54.302976","MEAN_MOTION":12.62267068,"ECCENTRICITY":7.202e-5,"INCLINATION":51.9951,"RA_OF_ASC_NODE":109.4383,"ARG_OF_PERICENTER":117.5923,"MEAN_ANOMALY":242.5017,"EPHEMERIS_TYPE":0,"CLASSIFICATION_TYPE":"U","NORAD_CAT_ID":39074,"ELEMENT_SET_NO":999,"REV_AT_EPOCH":60525,"BSTAR":0.00016109682,"MEAN_MOTION_DOT":-7.5e-7,"MEAN_MOTION_DDOT":0},{"OBJECT_NAME":"GLOBALSTAR M096","OBJECT_ID":"2013-005D","EPOCH":"2026-03-04T11:13:48.586080","MEAN_MOTION":12.62263341,"ECCENTRICITY":8.668e-5,"INCLINATION":52.0068,"RA_OF_ASC_NODE":158.3566,"ARG_OF_PERICENTER":110.1813,"MEAN_ANOMALY":249.9147,"EPHEMERIS_TYPE":0,"CLASSIFICATION_TYPE":"U","NORAD_CAT_ID":39075,"ELEMENT_SET_NO":999,"REV_AT_EPOCH":60416,"BSTAR":9.836157e-5,"MEAN_MOTION_DOT":-8.6e-7,"MEAN_MOTION_DDOT":0},{"OBJECT_NAME":"GLOBALSTAR M078","OBJECT_ID":"2013-005E","EPOCH":"2026-03-04T10:35:30.308064","MEAN_MOTION":12.62275961,"ECCENTRICITY":0.00014952,"INCLINATION":51.9852,"RA_OF_ASC_NODE":242.5926,"ARG_OF_PERICENTER":63.6753,"MEAN_ANOMALY":296.4267,"EPHEMERIS_TYPE":0,"CLASSIFICATION_TYPE":"U","NORAD_CAT_ID":39076,"ELEMENT_SET_NO":999,"REV_AT_EPOCH":60278,"BSTAR":3.719566e-6,"MEAN_MOTION_DOT":-1.03e-6,"MEAN_MOTION_DDOT":0},{"OBJECT_NAME":"GLOBALSTAR M095","OBJECT_ID":"2013-005F","EPOCH":"2026-03-04T11:13:49.882080","MEAN_MOTION":12.62276105,"ECCENTRICITY":0.00013613,"INCLINATION":52.006,"RA_OF_ASC_NODE":239.9679,"ARG_OF_PERICENTER":86.7177,"MEAN_ANOMALY":273.3845,"EPHEMERIS_TYPE":0,"CLASSIFICATION_TYPE":"U","NORAD_CAT_ID":39077,"ELEMENT_SET_NO":999,"REV_AT_EPOCH":60264,"BSTAR":-5.1601453e-5,"MEAN_MOTION_DOT":-1.13e-6,"MEAN_MOTION_DDOT":0},{"OBJECT_NAME":"GLOBALSTAR M087","OBJECT_ID":"2022-064A","EPOCH":"2026-03-04T07:44:59.728128","MEAN_MOTION":12.62266798,"ECCENTRICITY":6.785e-5,"INCLINATION":52.0019,"RA_OF_ASC_NODE":21.7065,"ARG_OF_PERICENTER":84.5031,"MEAN_ANOMALY":275.5913,"EPHEMERIS_TYPE":0,"CLASSIFICATION_TYPE":"U","NORAD_CAT_ID":52888,"ELEMENT_SET_NO":999,"REV_AT_EPOCH":17789,"BSTAR":6.297254e-6,"MEAN_MOTION_DOT":-1.03e-6,"MEAN_MOTION_DDOT":0}]
